0 ATLAS CENTAUR R/B
1 15874U 85055B   13282.39013660  .00002278  00000-0  74449-3 0  3693
2 15874 023.0040 135.2699 6636681 303.2360 338.6949 03.11262165287864
0 ATLAS CENTAUR R/B
1 15874U 85055B   13283.70276410  .00003458  00000-0  10674-2 0  3716
2 15874 023.0072 134.5298 6638705 304.5268 009.5650 03.11265308287906
0 ATLAS CENTAUR R/B
1 15874U 85055B   13285.27804525  .00002292  00000-0  72033-3 0  3717
2 15874 023.0096 133.6517 6636460 306.0648 334.7614 03.11276433287950
0 ATLAS CENTAUR R/B
1 15874U 85055B   13288.17312536  .00003148  00000-0  10133-2 0  3729
2 15874 023.0152 132.0297 6636204 308.8979 339.0213 03.11294092288049
0 ATLAS CENTAUR R/B
1 15874U 85055B   13289.48756535  .00002786  00000-0  91046-3 0  3736
2 15874 023.0172 131.2938 6636138 310.1832 012.0678 03.11301256288082
0 ATLAS CENTAUR R/B
1 15874U 85055B   13292.70908059  .00003064  00000-0  10558-2 0  3744
2 15874 023.0218 129.4907 6635884 313.3376 022.4480 03.11315819288180
0 ATLAS CENTAUR R/B
1 15874U 85055B   13294.63931294  .00002930  00000-0  10237-2 0  3751
2 15874 023.0259 128.4108 6635687 315.2288 025.7476 03.11331119288240
0 ATLAS CENTAUR R/B
1 15874U 85055B   13295.59490277  .00002989  00000-0  10413-2 0  3769
2 15874 023.0281 127.8755 6635614 316.1649 016.7570 03.11337337288273
